[{"OBJECT_NAME":"AFR-1","OBJECT_ID":"2023-084AJ","EPOCH":"2026-03-09T23:02:07.499328","MEAN_MOTION":15.27543824,"ECCENTRICITY":0.00099838,"INCLINATION":97.6099,"RA_OF_ASC_NODE":203.4313,"ARG_OF_PERICENTER":334.9676,"MEAN_ANOMALY":25.1077,"EPHEMERIS_TYPE":0,"CLASSIFICATION_TYPE":"U","NORAD_CAT_ID":56964,"ELEMENT_SET_NO":999,"REV_AT_EPOCH":15207,"BSTAR":0.00024843733,"MEAN_MOTION_DOT":6.624e-5,"MEAN_MOTION_DDOT":0},{"OBJECT_NAME":"STARLINK-32105","OBJECT_ID":"2024-086H","EPOCH":"2026-03-09T00:36:14.673312","MEAN_MOTION":15.27571735,"ECCENTRICITY":5.995e-5,"INCLINATION":43.0048,"RA_OF_ASC_NODE":63.3818,"ARG_OF_PERICENTER":262.6216,"MEAN_ANOMALY":97.4567,"EPHEMERIS_TYPE":0,"CLASSIFICATION_TYPE":"U","NORAD_CAT_ID":59689,"ELEMENT_SET_NO":999,"REV_AT_EPOCH":10401,"BSTAR":8.65949e-7,"MEAN_MOTION_DOT":-2.38e-6,"MEAN_MOTION_DDOT":0}]
